OBJECT_NAME,OBJECT_ID,EPOCH,MEAN_MOTION,ECCENTRICITY,INCLINATION,RA_OF_ASC_NODE,ARG_OF_PERICENTER,MEAN_ANOMALY,EPHEMERIS_TYPE,CLASSIFICATION_TYPE,NORAD_CAT_ID,ELEMENT_SET_NO,REV_AT_EPOCH,BSTAR,MEAN_MOTION_DOT,MEAN_MOTION_DDOT
FARADAY_PHOENIX,2021-059AX,2026-07-14T12:46:26.250528,15.86843499,.00058733,97.6763,36.7767,199.9387,160.1655,0,U,48924,999,28198,.53856597E-3,.139204E-2,0
DEMO8 (TENZING),2021-059CA,2026-07-14T20:07:30.849600,15.56018345,.0005685,97.7005,31.3838,233.2248,126.8485,0,U,48951,999,28160,.18993E-3,.13119E-3,0
FENGYUN 3E,2021-062A,2026-07-14T21:29:03.336000,14.19906108,.0002286,98.7495,198.9944,39.9634,320.1711,0,U,49008,999,26051,-.50908E-4,-.152E-5,0
ISS (NAUKA),2021-066A,2026-07-14T20:43:00.778080,15.49008846,.0006677,51.6306,163.1262,297.0398,62.9909,0,U,49044,999,57604,.54527E-4,.2555E-4,0
STARLINK-3100,2021-082Q,2026-07-14T19:29:53.712672,14.98322105,.0002901,70.0011,333.9248,264.9482,95.1345,0,U,49144,999,26502,-.61225E-4,-.823E-5,0
CUTE,2021-088D,2026-07-14T19:27:20.152224,16.21314162,.0011345,97.3987,298.1083,285.4989,74.5047,0,U,49263,999,26697,.11013E-2,.2317248E-1,.24392E-5
2021-091B,2021-091B,2026-07-14T20:47:11.065056,15.18680030,.0012038,97.4468,23.0219,309.5456,50.4714,0,U,49316,999,26318,.78879E-4,.1569E-4,0
SDGSAT 1,2021-100A,2026-07-14T19:53:29.284224,15.19236068,.000975,97.2622,241.7209,163.9626,196.1920,0,U,49387,999,26011,.56233E-4,.112E-4,0
TEIKYOSAT-4 (OORURI),2021-102B,2026-07-14T15:06:41.975136,15.09597377,.001167,97.3665,224.0464,190.4207,169.6783,0,U,49396,999,25686,.75287E-4,.115E-4,0
Z-SAT,2021-102E,2026-07-14T19:28:03.023904,15.18459228,.0017537,97.3315,230.2962,145.5428,214.6947,0,U,49399,999,25763,.50426E-4,.976E-5,0
HIBARI,2021-102F,2026-07-14T16:48:03.862080,15.32272167,.0013317,97.3222,241.2968,102.9043,257.3687,0,U,49400,999,25840,.20535E-3,.6337E-4,0
KOSEN-1,2021-102H,2026-07-14T15:55:55.445088,15.27209519,.0015408,97.3172,237.2911,109.3204,250.9703,0,U,49402,999,25821,.17148E-3,.4514E-4,0
GLOBAL-14,2021-106A,2026-07-14T20:03:03.777696,15.51815875,.0017722,42.0034,126.6067,221.7010,138.2484,0,U,49469,999,26242,.26659E-3,.16173E-3,0
GAOFEN-3 02,2021-109A,2026-07-14T20:51:58.605984,14.42219689,.0001344,98.4087,203.5730,269.7066,90.3970,0,U,49495,999,24430,-.26674E-4,-.131E-5,0
GLOBAL-12,2021-115BA,2026-07-14T12:39:15.638112,15.55307022,.00028592,53.1946,272.9118,70.9256,289.2065,0,U,49772,999,26015,.28636433E-3,.1933E-3,0
GLOBAL-13,2021-115BB,2026-07-14T20:13:20.500896,15.47101598,.0000619,53.1976,283.0159,157.3954,202.7082,0,U,49773,999,26004,.23791E-3,.11832E-3,0
GLOBAL-17,2021-120A,2026-07-14T14:43:41.492352,15.53698139,.0013349,41.9933,245.6865,86.3012,273.9359,0,U,49949,999,25916,.25786E-3,.16705E-3,0
GLOBAL-16,2021-120B,2026-07-14T14:25:18.365664,15.51465690,.0011429,41.9935,250.0240,75.5872,284.6240,0,U,49950,999,25910,.24918E-3,.14845E-3,0
XW-3 (CAS-9),2021-131B,2026-07-14T19:43:44.016672,14.41381597,.0004638,98.4992,288.0627,31.2562,328.8902,0,U,50466,999,23909,.10495E-3,.296E-5,0
ION SCV-004,2022-002K,2026-07-14T16:37:51.484800,15.30705241,.0005687,97.2820,252.8371,249.3579,110.7053,0,U,50993,999,24950,.10002E-3,.2894E-4,0
ETV-A1,2022-002CE,2026-07-14T20:55:10.515936,15.41230121,.0003892,97.2867,262.1053,227.0850,133.0070,0,U,51060,999,25010,.15996E-3,.6562E-4,0
BRO-5,2022-002CF,2026-07-14T20:24:56.414880,15.48868090,.000535,97.2991,269.7920,204.8361,155.2633,0,U,51061,999,25053,.36006E-3,.19331E-3,0
LUDI TANCE 1-01A (L-SAR 01A),2022-007A,2026-07-14T21:05:12.990912,14.88419436,.0001633,97.8105,202.9055,90.7776,269.3628,0,U,51284,999,24259,.37085E-4,.289E-5,0
LUDI TANCE 1-01B (L-SAR 01B),2022-018A,2026-07-14T20:16:49.253664,14.88413499,.0001615,97.8110,202.8706,91.5982,268.5420,0,U,51822,999,23782,.37339E-4,.292E-5,0
2022-023F,2022-023F,2026-07-14T21:06:41.494752,15.17971089,.0133023,63.4444,179.3413,341.6064,18.0261,0,U,51951,999,24191,.23542E-3,.5804E-4,0
MERIDIAN 10,2022-030A,2026-07-13T21:17:39.586272,2.00609467,.67913883,62.6788,137.9109,272.8418,17.6045,0,U,52145,999,3156,0,.135E-5,0
OMNI-L1,2022-033A,2026-07-14T18:41:21.484896,14.82843845,.0005282,97.8392,274.4207,178.7095,181.4133,0,U,52157,999,23154,.11907E-3,.912E-5,0
