FARADAY_PHOENIX         
1 48924U 21059AX  26195.53224827  .00139204  00000+0  53857-3 0  9999
2 48924  97.6763  36.7767 0005873 199.9387 160.1655 15.86843499281981
DEMO8 (TENZING)         
1 48951U 21059CA  26195.83855150  .00013119  00000+0  18993-3 0  9999
2 48951  97.7005  31.3838 0005685 233.2248 126.8485 15.56018345281600
FENGYUN 3E              
1 49008U 21062A   26195.89517750 -.00000152  00000+0 -50908-4 0  9992
2 49008  98.7495 198.9944 0002286  39.9634 320.1711 14.19906108260519
ISS (NAUKA)             
1 49044U 21066A   26195.86320345  .00002555  00000+0  54527-4 0  9993
2 49044  51.6306 163.1262 0006677 297.0398  62.9909 15.49008846576041
STARLINK-3100           
1 49144U 21082Q   26195.81242723 -.00000823  00000+0 -61225-4 0  9991
2 49144  70.0011 333.9248 0002901 264.9482  95.1345 14.98322105265029
CUTE                    
1 49263U 21088D   26195.81064991  .02317248  24392-5  11013-2 0  9994
2 49263  97.3987 298.1083 0011345 285.4989  74.5047 16.21314162266973
2021-091B               
1 49316U 21091B   26195.86610029  .00001569  00000+0  78879-4 0  9994
2 49316  97.4468  23.0219 0012038 309.5456  50.4714 15.18680030263189
SDGSAT 1                
1 49387U 21100A   26195.82881116  .00001120  00000+0  56233-4 0  9999
2 49387  97.2622 241.7209 0009750 163.9626 196.1920 15.19236068260119
TEIKYOSAT-4 (OORURI)    
1 49396U 21102B   26195.62965249  .00001150  00000+0  75287-4 0  9992
2 49396  97.3665 224.0464 0011670 190.4207 169.6783 15.09597377256869
Z-SAT                   
1 49399U 21102E   26195.81114611  .00000976  00000+0  50426-4 0  9998
2 49399  97.3315 230.2962 0017537 145.5428 214.6947 15.18459228257631
HIBARI                  
1 49400U 21102F   26195.70004470  .00006337  00000+0  20535-3 0  9994
2 49400  97.3222 241.2968 0013317 102.9043 257.3687 15.32272167258403
KOSEN-1                 
1 49402U 21102H   26195.66383617  .00004514  00000+0  17148-3 0  9995
2 49402  97.3172 237.2911 0015408 109.3204 250.9703 15.27209519258217
GLOBAL-14               
1 49469U 21106A   26195.83546039  .00016173  00000+0  26659-3 0  9991
2 49469  42.0034 126.6067 0017722 221.7010 138.2484 15.51815875262429
GAOFEN-3 02             
1 49495U 21109A   26195.86942831 -.00000131  00000+0 -26674-4 0  9993
2 49495  98.4087 203.5730 0001344 269.7066  90.3970 14.42219689244304
GLOBAL-12               
1 49772U 21115BA  26195.52726433  .00019330  00000+0  28636-3 0  9997
2 49772  53.1946 272.9118 0002859  70.9256 289.2065 15.55307022260158
GLOBAL-13               
1 49773U 21115BB  26195.84259839  .00011832  00000+0  23791-3 0  9990
2 49773  53.1976 283.0159 0000619 157.3954 202.7082 15.47101598260045
GLOBAL-17               
1 49949U 21120A   26195.61367468  .00016705  00000+0  25786-3 0  9994
2 49949  41.9933 245.6865 0013349  86.3012 273.9359 15.53698139259163
GLOBAL-16               
1 49950U 21120B   26195.60090701  .00014845  00000+0  24918-3 0  9997
2 49950  41.9935 250.0240 0011429  75.5872 284.6240 15.51465690259109
XW-3 (CAS-9)            
1 50466U 21131B   26195.82203723  .00000296  00000+0  10495-3 0  9997
2 50466  98.4992 288.0627 0004638  31.2562 328.8902 14.41381597239095
ION SCV-004             
1 50993U 22002K   26195.69295700  .00002894  00000+0  10002-3 0  9991
2 50993  97.2820 252.8371 0005687 249.3579 110.7053 15.30705241249504
ETV-A1                  
1 51060U 22002CE  26195.87164949  .00006562  00000+0  15996-3 0  9990
2 51060  97.2867 262.1053 0003892 227.0850 133.0070 15.41230121250100
BRO-5                   
1 51061U 22002CF  26195.85065295  .00019331  00000+0  36006-3 0  9996
2 51061  97.2991 269.7920 0005350 204.8361 155.2633 15.48868090250533
LUDI TANCE 1-01A (L-SA*)
1 51284U 22007A   26195.87862258  .00000289  00000+0  37085-4 0  9995
2 51284  97.8105 202.9055 0001633  90.7776 269.3628 14.88419436242590
LUDI TANCE 1-01B (L-SA*)
1 51822U 22018A   26195.84501451  .00000292  00000+0  37339-4 0  9993
2 51822  97.8110 202.8706 0001615  91.5982 268.5420 14.88413499237828
2022-023F               
1 51951U 22023F   26195.87964693  .00005804  00000+0  23542-3 0  9990
2 51951  63.4444 179.3413 0133023 341.6064  18.0261 15.17971089241915
MERIDIAN 10             
1 52145U 22030A   26194.88726373  .00000135  00000+0  00000+0 0  9997
2 52145  62.6788 137.9109 6791388 272.8418  17.6045  2.00609467 31562
OMNI-L1                 
1 52157U 22033A   26195.77872089  .00000912  00000+0  11907-3 0  9993
2 52157  97.8392 274.4207 0005282 178.7095 181.4133 14.82843845231543
